{
  "norad_id": 54377,
  "name": "COSMOS 2564 [GLONASS-M]",
  "history": [
    {
      "epoch": "2026-03-28T12:40:52.220352",
      "apogee_km": 19155.77309552445,
      "perigee_km": 19104.029529646603,
      "latitude_deg": -43.161103548014225,
      "longitude_deg": 28.4246892798692,
      "semi_major_axis_km": 25508.038312585526,
      "eccentricity": 0.00101426,
      "inclination_deg": 64.7402,
      "raan_deg": 195.3871,
      "arg_perigee_deg": 214.6858,
      "mean_anomaly_deg": 145.2434,
      "mean_motion_rev_day": 2.13101826
    }
  ]
}