COSMOS 2564 (761)       
1 54377U 22161A   26087.52838218 -.00000035  00000+0  00000+0 0  9995
2 54377  64.7402 195.3871 0010142 214.6858 145.2434  2.13101826 25911
